[{"OBJECT_NAME":"FLOCK 4G-10","OBJECT_ID":"2025-009BP","EPOCH":"2026-03-09T16:59:55.292640","MEAN_MOTION":15.27155944,"ECCENTRICITY":0.00034694,"INCLINATION":97.3967,"RA_OF_ASC_NODE":150.5883,"ARG_OF_PERICENTER":341.4844,"MEAN_ANOMALY":18.6269,"EPHEMERIS_TYPE":0,"CLASSIFICATION_TYPE":"U","NORAD_CAT_ID":62670,"ELEMENT_SET_NO":999,"REV_AT_EPOCH":12134,"BSTAR":0.00052624432,"MEAN_MOTION_DOT":0.00013952,"MEAN_MOTION_DDOT":0},{"OBJECT_NAME":"STARLINK-34986","OBJECT_ID":"2025-259AA","EPOCH":"2026-03-09T22:05:16.194048","MEAN_MOTION":15.27592953,"ECCENTRICITY":8.551e-5,"INCLINATION":42.9931,"RA_OF_ASC_NODE":273.2927,"ARG_OF_PERICENTER":16.5269,"MEAN_ANOMALY":343.561,"EPHEMERIS_TYPE":0,"CLASSIFICATION_TYPE":"U","NORAD_CAT_ID":66446,"ELEMENT_SET_NO":999,"REV_AT_EPOCH":1952,"BSTAR":0.00083905541,"MEAN_MOTION_DOT":0.00022908,"MEAN_MOTION_DDOT":0}]
